{
  "norad_id": 57477,
  "name": "STARLINK-30176",
  "history": [
    {
      "epoch": "2026-03-28T17:47:23.434944Z",
      "apogee_km": 484.14958754558575,
      "perigee_km": 481.9892680897228,
      "latitude_deg": -2.6807105545938437e-05,
      "longitude_deg": 135.24728705200107,
      "height_km": 482.7889241627873,
      "semi_major_axis_km": 6861.206427817654,
      "eccentricity": 0.00015743,
      "inclination_deg": 42.9974,
      "raan_deg": 228.2523,
      "arg_perigee_deg": 273.0285,
      "mean_anomaly_deg": 87.0386,
      "mean_motion_rev_day": 15.2757321
    },
    {
      "epoch": "2026-03-29T01:38:10.270752Z",
      "apogee_km": 484.1493107979959,
      "perigee_km": 481.87703508372215,
      "latitude_deg": 4.423834046771697e-06,
      "longitude_deg": 15.387833225595486,
      "height_km": 482.6705325061457,
      "semi_major_axis_km": 6861.150172940859,
      "eccentricity": 0.00016559,
      "inclination_deg": 43.0032,
      "raan_deg": 226.4102,
      "arg_perigee_deg": 276.0586,
      "mean_anomaly_deg": 84.0077,
      "mean_motion_rev_day": 15.27591997
    }
  ]
}